EUTELSAT 21B            
1 38992U 12062B   25231.53878670  .00000114  00000+0  00000+0 0  9993
2 38992   0.0708 342.1308 0003123 160.0349  41.5270  1.00274134 46800
EUTELSAT 70B            
1 39020U 12069A   25231.54849340 -.00000060  00000+0  00000+0 0  9997
2 39020   0.0671 341.4568 0003648 169.4499  85.1860  1.00272974 46486
EUTELSAT 117 WEST A     
1 39122U 13012A   25231.74350216 -.00000029  00000+0  00000+0 0  9995
2 39122   0.0585 284.6032 0002705 236.4267 318.1414  1.00270406 45445
EUTELSAT 7B             
1 39163U 13022A   25231.32177888  .00000033  00000+0  00000+0 0  9991
2 39163   0.0710 341.3983 0001833  63.2028  46.1280  1.00271478 44930
EXPRESS-AT1             
1 39612U 14010A   25231.18874499  .00000064  00000+0  00000+0 0  9998
2 39612   0.0086 165.5966 0000049 263.4015  22.7253  1.00272955 41781
EXPRESS-AT2             
1 39613U 14010B   25231.60736610 -.00000297  00000+0  00000+0 0  9997
2 39613   0.0255 239.5330 0000194  76.7127  10.4372  1.00271688 41471
EUTELSAT 3B             
1 39773U 14030A   25231.42475499  .00000005  00000+0  00000+0 0  9997
2 39773   0.0665 341.6909 0004293 174.7820 327.5488  1.00273459 41044
EUTELSAT 115 WEST B     
1 40425U 15010B   25231.36892573 -.00000040  00000+0  00000+0 0  9991
2 40425   0.0102 247.0559 0000336 177.2681 281.5340  1.00272175 38364
